CTC1_L_00366001-01
1 85353U 26619LS  26037.47805556  .00000000  00000+0  00000-0 0  9995
2 85353  90.0000   0.0000 0000000   0.0000   0.0000 13.29142284    12
CTC1_L_00366001-02
1 85354U 22558SW  26037.47805556  .00000000  00000+0  00000-0 0  9994
2 85354  90.0000   0.0000 0000000   0.0000  90.0000 13.29142284    12
CTC1_L_00366001-03
1 85355U 24747GJ  26037.47805556  .00000000  00000+0  00000-0 0  9997
2 85355  90.0000   0.0000 0000000   0.0000 180.0000 13.29142284    13
CTC1_L_00366001-04
1 85356U 25759OG  26037.47805556  .00000000  00000+0  00000-0 0  9992
2 85356  90.0000   0.0000 0000000   0.0000 270.0000 13.29142284    14
CTC1_L_00366002-01
1 85357U 25290HB  26037.47805556  .00000000  00000+0  00000-0 0  9993
2 85357  90.0000  12.0000 0000000   0.0000  12.0000 13.29142284    12
CTC1_L_00366002-02
1 85358U 26588HT  26037.47805556  .00000000  00000+0  00000-0 0  9995
2 85358  90.0000  12.0000 0000000   0.0000 102.0000 13.29142284    13
CTC1_L_00366002-03
1 85359U 23754DQ  26037.47805556  .00000000  00000+0  00000-0 0  9998
2 85359  90.0000  12.0000 0000000   0.0000 192.0000 13.29142284    13
CTC1_L_00366002-04
1 85360U 22796PT  26037.47805556  .00000000  00000+0  00000-0 0  9995
2 85360  90.0000  12.0000 0000000   0.0000 282.0000 13.29142284    15
CTC1_L_00366003-01
1 85361U 25367JI  26037.47805556  .00000000  00000+0  00000-0 0  9993
2 85361  90.0000  24.0000 0000000   0.0000  24.0000 13.29142284    13
CTC1_L_00366003-02
1 85362U 26045UL  26037.47805556  .00000000  00000+0  00000-0 0  9998
2 85362  90.0000  24.0000 0000000   0.0000 114.0000 13.29142284    14
CTC1_L_00366003-03
1 85363U 26555CS  26037.47805556  .00000000  00000+0  00000-0 0  9995
2 85363  90.0000  24.0000 0000000   0.0000 204.0000 13.29142284    15
CTC1_L_00366003-04
1 85364U 23285UD  26037.47805556  .00000000  00000+0  00000-0 0  9993
2 85364  90.0000  24.0000 0000000   0.0000 294.0000 13.29142284    15
CTC1_L_00366004-01
1 85365U 26980LG  26037.47805556  .00000000  00000+0  00000-0 0  9999
2 85365  90.0000  36.0000 0000000   0.0000  36.0000 13.29142284    13
CTC1_L_00366004-02
1 85366U 24379TQ  26037.47805556  .00000000  00000+0  00000-0 0  9990
2 85366  90.0000  36.0000 0000000   0.0000 126.0000 13.29142284    14
CTC1_L_00366004-03
1 85367U 26609B   26037.47805556  .00000000  00000+0  00000-0 0  9999
2 85367  90.0000  36.0000 0000000   0.0000 216.0000 13.29142284    15
CTC1_L_00366004-04
1 85368U 24729BH  26037.47805556  .00000000  00000+0  00000-0 0  9991
2 85368  90.0000  36.0000 0000000   0.0000 306.0000 13.29142284    16
CTC1_L_00366005-01
1 85369U 23144DU  26037.47805556  .00000000  00000+0  00000-0 0  9992
2 85369  90.0000  48.0000 0000000   0.0000  48.0000 13.29142284    13
CTC1_L_00366005-02
1 85370U 22998NY  26037.47805556  .00000000  00000+0  00000-0 0  9990
2 85370  90.0000  48.0000 0000000   0.0000 138.0000 13.29142284    15
CTC1_L_00366005-03
1 85371U 23242NJ  26037.47805556  .00000000  00000+0  00000-0 0  9994
2 85371  90.0000  48.0000 0000000   0.0000 228.0000 13.29142284    16
CTC1_L_00366005-04
1 85372U 25589FA  26037.47805556  .00000000  00000+0  00000-0 0  9991
2 85372  90.0000  48.0000 0000000   0.0000 318.0000 13.29142284    17
CTC1_L_00366006-01
1 85373U 24290ML  26037.47805556  .00000000  00000+0  00000-0 0  9990
2 85373  90.0000  60.0000 0000000   0.0000  60.0000 13.29142284    16
CTC1_L_00366006-02
1 85374U 22771MS  26037.47805556  .00000000  00000+0  00000-0 0  9993
2 85374  90.0000  60.0000 0000000   0.0000 150.0000 13.29142284    17
CTC1_L_00366006-03
1 85375U 22582LQ  26037.47805556  .00000000  00000+0  00000-0 0  9994
2 85375  90.0000  60.0000 0000000   0.0000 240.0000 13.29142284    18
CTC1_L_00366006-04
1 85376U 25058PR  26037.47805556  .00000000  00000+0  00000-0 0  9996
2 85376  90.0000  60.0000 0000000   0.0000 330.0000 13.29142284    19
CTC1_L_00366007-01
1 85377U 23157YX  26037.47805556  .00000000  00000+0  00000-0 0  9995
2 85377  90.0000  72.0000 0000000   0.0000  72.0000 13.29142284    16
CTC1_L_00366007-02
1 85378U 26921YV  26037.47805556  .00000000  00000+0  00000-0 0  9998
2 85378  90.0000  72.0000 0000000   0.0000 162.0000 13.29142284    17
CTC1_L_00366007-03
1 85379U 22798UK  26037.47805556  .00000000  00000+0  00000-0 0  9997
2 85379  90.0000  72.0000 0000000   0.0000 252.0000 13.29142284    18
CTC1_L_00366007-04
1 85380U 26309JL  26037.47805556  .00000000  00000+0  00000-0 0  9991
2 85380  90.0000  72.0000 0000000   0.0000 342.0000 13.29142284    10
CTC1_L_00366008-01
1 85381U 24079LQ  26037.47805556  .00000000  00000+0  00000-0 0  9994
2 85381  90.0000  84.0000 0000000   0.0000  84.0000 13.29142284    17
CTC1_L_00366008-02
1 85382U 22292LS  26037.47805556  .00000000  00000+0  00000-0 0  9990
2 85382  90.0000  84.0000 0000000   0.0000 174.0000 13.29142284    18
CTC1_L_00366008-03
1 85383U 24056ML  26037.47805556  .00000000  00000+0  00000-0 0  9991
2 85383  90.0000  84.0000 0000000   0.0000 264.0000 13.29142284    19
CTC1_L_00366008-04
1 85384U 26966Q   26037.47805556  .00000000  00000+0  00000-0 0  9994
2 85384  90.0000  84.0000 0000000   0.0000 354.0000 13.29142284    10
CTC1_L_00366009-01
1 85385U 22239CO  26037.47805556  .00000000  00000+0  00000-0 0  9994
2 85385  90.0000  96.0000 0000000   0.0000  96.0000 13.29142284    17
CTC1_L_00366009-02
1 85386U 22638GD  26037.47805556  .00000000  00000+0  00000-0 0  9998
2 85386  90.0000  96.0000 0000000   0.0000 186.0000 13.29142284    18
CTC1_L_00366009-03
1 85387U 26787TQ  26037.47805556  .00000000  00000+0  00000-0 0  9998
2 85387  90.0000  96.0000 0000000   0.0000 276.0000 13.29142284    19
CTC1_L_00366009-04
1 85388U 26358RM  26037.47805556  .00000000  00000+0  00000-0 0  9993
2 85388  90.0000  96.0000 0000000   0.0000   6.0000 13.29142284    11
CTC1_L_00366010-01
1 85389U 24891LH  26037.47805556  .00000000  00000+0  00000-0 0  9994
2 85389  90.0000 108.0000 0000000   0.0000 108.0000 13.29142284    19
CTC1_L_00366010-02
1 85390U 24712NT  26037.47805556  .00000000  00000+0  00000-0 0  9998
2 85390  90.0000 108.0000 0000000   0.0000 198.0000 13.29142284    10
CTC1_L_00366010-03
1 85391U 26008GV  26037.47805556  .00000000  00000+0  00000-0 0  9999
2 85391  90.0000 108.0000 0000000   0.0000 288.0000 13.29142284    11
CTC1_L_00366010-04
1 85392U 22192YJ  26037.47805556  .00000000  00000+0  00000-0 0  9990
2 85392  90.0000 108.0000 0000000   0.0000  18.0000 13.29142284    13
CTC1_L_00366011-01
1 85393U 22348VK  26037.47805556  .00000000  00000+0  00000-0 0  9994
2 85393  90.0000 120.0000 0000000   0.0000 120.0000 13.29142284    12
CTC1_L_00366011-02
1 85394U 22956QW  26037.47805556  .00000000  00000+0  00000-0 0  9990
2 85394  90.0000 120.0000 0000000   0.0000 210.0000 13.29142284    13
CTC1_L_00366011-03
1 85395U 23405JK  26037.47805556  .00000000  00000+0  00000-0 0  9991
2 85395  90.0000 120.0000 0000000   0.0000 300.0000 13.29142284    14
CTC1_L_00366011-04
1 85396U 22752HT  26037.47805556  .00000000  00000+0  00000-0 0  9996
2 85396  90.0000 120.0000 0000000   0.0000  30.0000 13.29142284    15
CTC1_L_00366012-01
1 85397U 22009PS  26037.47805556  .00000000  00000+0  00000-0 0  9992
2 85397  90.0000 132.0000 0000000   0.0000 132.0000 13.29142284    12
CTC1_L_00366012-02
1 85398U 24087ZY  26037.47805556  .00000000  00000+0  00000-0 0  9991
2 85398  90.0000 132.0000 0000000   0.0000 222.0000 13.29142284    13
CTC1_L_00366012-03
1 85399U 23377M   26037.47805556  .00000000  00000+0  00000-0 0  9993
2 85399  90.0000 132.0000 0000000   0.0000 312.0000 13.29142284    14
CTC1_L_00366012-04
1 85400U 22667NX  26037.47805556  .00000000  00000+0  00000-0 0  9997
2 85400  90.0000 132.0000 0000000   0.0000  42.0000 13.29142284    17
CTC1_L_00366013-01
1 85401U 22526AL  26037.47805556  .00000000  00000+0  00000-0 0  9992
2 85401  90.0000 144.0000 0000000   0.0000 144.0000 13.29142284    14
CTC1_L_00366013-02
1 85402U 26288FQ  26037.47805556  .00000000  00000+0  00000-0 0  9992
2 85402  90.0000 144.0000 0000000   0.0000 234.0000 13.29142284    15
CTC1_L_00366013-03
1 85403U 24549VX  26037.47805556  .00000000  00000+0  00000-0 0  9991
2 85403  90.0000 144.0000 0000000   0.0000 324.0000 13.29142284    16
CTC1_L_00366013-04
1 85404U 23795FC  26037.47805556  .00000000  00000+0  00000-0 0  9994
2 85404  90.0000 144.0000 0000000   0.0000  54.0000 13.29142284    17
CTC1_L_00366014-01
1 85405U 22894UV  26037.47805556  .00000000  00000+0  00000-0 0  9994
2 85405  90.0000 156.0000 0000000   0.0000 156.0000 13.29142284    14
CTC1_L_00366014-02
1 85406U 26508DW  26037.47805556  .00000000  00000+0  00000-0 0  9991
2 85406  90.0000 156.0000 0000000   0.0000 246.0000 13.29142284    15
CTC1_L_00366014-03
1 85407U 22789FK  26037.47805556  .00000000  00000+0  00000-0 0  9999
2 85407  90.0000 156.0000 0000000   0.0000 336.0000 13.29142284    16
CTC1_L_00366014-04
1 85408U 24080OW  26037.47805556  .00000000  00000+0  00000-0 0  9996
2 85408  90.0000 156.0000 0000000   0.0000  66.0000 13.29142284    17
CTC1_L_00366015-01
1 85409U 24206HZ  26037.47805556  .00000000  00000+0  00000-0 0  9997
2 85409  90.0000 168.0000 0000000   0.0000 168.0000 13.29142284    14
CTC1_L_00366015-02
1 85410U 22908RV  26037.47805556  .00000000  00000+0  00000-0 0  9996
2 85410  90.0000 168.0000 0000000   0.0000 258.0000 13.29142284    16
CTC1_L_00366015-03
1 85411U 22385TC  26037.47805556  .00000000  00000+0  00000-0 0  9996
2 85411  90.0000 168.0000 0000000   0.0000 348.0000 13.29142284    17
CTC1_L_00366015-04
1 85412U 26108DE  26037.47805556  .00000000  00000+0  00000-0 0  9994
2 85412  90.0000 168.0000 0000000   0.0000  78.0000 13.29142284    18
CTC1_L_00366016-01
1 85413U 24063EX  26037.47805556  .00000000  00000+0  00000-0 0  9993
2 85413  90.0000 180.0000 0000000   0.0000 180.0000 13.29142284    17
CTC1_L_00366016-02
1 85414U 25847OI  26037.47805556  .00000000  00000+0  00000-0 0  9995
2 85414  90.0000 180.0000 0000000   0.0000 270.0000 13.29142284    18
